[{"OBJECT_NAME":"STARLINK-34681","OBJECT_ID":"2025-259S","EPOCH":"2026-03-09T21:44:54.042720","MEAN_MOTION":15.27602087,"ECCENTRICITY":0.00019215,"INCLINATION":43,"RA_OF_ASC_NODE":273.1825,"ARG_OF_PERICENTER":263.5308,"MEAN_ANOMALY":96.5325,"EPHEMERIS_TYPE":0,"CLASSIFICATION_TYPE":"U","NORAD_CAT_ID":66438,"ELEMENT_SET_NO":999,"REV_AT_EPOCH":1941,"BSTAR":0.0010530093,"MEAN_MOTION_DOT":0.00028848,"MEAN_MOTION_DDOT":0},{"OBJECT_NAME":"FENGYUN 1C DEB","OBJECT_ID":"1999-025CMP","EPOCH":"2026-03-08T08:37:00.789888","MEAN_MOTION":14.96815474,"ECCENTRICITY":0.01497126,"INCLINATION":98.9176,"RA_OF_ASC_NODE":115.7276,"ARG_OF_PERICENTER":148.4975,"MEAN_ANOMALY":212.5316,"EPHEMERIS_TYPE":0,"CLASSIFICATION_TYPE":"U","NORAD_CAT_ID":31938,"ELEMENT_SET_NO":999,"REV_AT_EPOCH":409,"BSTAR":0.00073670691,"MEAN_MOTION_DOT":0.00010536,"MEAN_MOTION_DDOT":0}]
